IXPE                    
1 49954U 21121A   24039.91668981  .00005825  00000+0  43055-3 0  9993
2 49954   0.2289 271.7129 0009888 160.9322 276.8890 14.96415012  5793
